<?xml version="1.0" encoding="UTF-8"?>
<ndm xmlns:xsi="http://www.w3.org/2001/XMLSchema-instance" xsi:noNamespaceSchemaLocation="https://sanaregistry.org/r/ndmxml_unqualified/ndmxml-2.0.0-master-2.0.xsd">
<omm id="CCSDS_OMM_VERS" version="2.0">
<header><CREATION_DATE/><ORIGINATOR/></header><body><segment><metadata><OBJECT_NAME>KUIPER-00112</OBJECT_NAME><OBJECT_ID>2025-171U</OBJECT_ID><CENTER_NAME>EARTH</CENTER_NAME><REF_FRAME>TEME</REF_FRAME><TIME_SYSTEM>UTC</TIME_SYSTEM><MEAN_ELEMENT_THEORY>SGP4</MEAN_ELEMENT_THEORY></metadata><data><meanElements><EPOCH>2025-10-20T01:49:58.228896</EPOCH><MEAN_MOTION>15.37516597</MEAN_MOTION><ECCENTRICITY>.00061093</ECCENTRICITY><INCLINATION>51.8751</INCLINATION><RA_OF_ASC_NODE>69.1152</RA_OF_ASC_NODE><ARG_OF_PERICENTER>36.9532</ARG_OF_PERICENTER><MEAN_ANOMALY>323.1875</MEAN_ANOMALY></meanElements><tleParameters><EPHEMERIS_TYPE>0</EPHEMERIS_TYPE><CLASSIFICATION_TYPE>U</CLASSIFICATION_TYPE><NORAD_CAT_ID>65150</NORAD_CAT_ID><ELEMENT_SET_NO>999</ELEMENT_SET_NO><REV_AT_EPOCH>1193</REV_AT_EPOCH><BSTAR>.19397142E-2</BSTAR><MEAN_MOTION_DOT>.72849E-3</MEAN_MOTION_DOT><MEAN_MOTION_DDOT>0</MEAN_MOTION_DDOT></tleParameters></data></segment></body></omm>
<omm id="CCSDS_OMM_VERS" version="2.0">
<header><CREATION_DATE/><ORIGINATOR/></header><body><segment><metadata><OBJECT_NAME>KUIPER-00114</OBJECT_NAME><OBJECT_ID>2025-171V</OBJECT_ID><CENTER_NAME>EARTH</CENTER_NAME><REF_FRAME>TEME</REF_FRAME><TIME_SYSTEM>UTC</TIME_SYSTEM><MEAN_ELEMENT_THEORY>SGP4</MEAN_ELEMENT_THEORY></metadata><data><meanElements><EPOCH>2025-10-20T06:00:04.000320</EPOCH><MEAN_MOTION>14.82892266</MEAN_MOTION><ECCENTRICITY>.0005172</ECCENTRICITY><INCLINATION>51.9003</INCLINATION><RA_OF_ASC_NODE>76.6823</RA_OF_ASC_NODE><ARG_OF_PERICENTER>18.5258</ARG_OF_PERICENTER><MEAN_ANOMALY>247.6769</MEAN_ANOMALY></meanElements><tleParameters><EPHEMERIS_TYPE>0</EPHEMERIS_TYPE><CLASSIFICATION_TYPE>U</CLASSIFICATION_TYPE><NORAD_CAT_ID>65151</NORAD_CAT_ID><ELEMENT_SET_NO>999</ELEMENT_SET_NO><REV_AT_EPOCH>539</REV_AT_EPOCH><BSTAR>.42171075E-2</BSTAR><MEAN_MOTION_DOT>.34466E-3</MEAN_MOTION_DOT><MEAN_MOTION_DDOT>0</MEAN_MOTION_DDOT></tleParameters></data></segment></body></omm>
<omm id="CCSDS_OMM_VERS" version="2.0">
<header><CREATION_DATE/><ORIGINATOR/></header><body><segment><metadata><OBJECT_NAME>KUIPER-00115</OBJECT_NAME><OBJECT_ID>2025-171W</OBJECT_ID><CENTER_NAME>EARTH</CENTER_NAME><REF_FRAME>TEME</REF_FRAME><TIME_SYSTEM>UTC</TIME_SYSTEM><MEAN_ELEMENT_THEORY>SGP4</MEAN_ELEMENT_THEORY></metadata><data><meanElements><EPOCH>2025-10-20T06:00:04.000320</EPOCH><MEAN_MOTION>15.08279263</MEAN_MOTION><ECCENTRICITY>.00091151</ECCENTRICITY><INCLINATION>51.8902</INCLINATION><RA_OF_ASC_NODE>71.0663</RA_OF_ASC_NODE><ARG_OF_PERICENTER>24.6888</ARG_OF_PERICENTER><MEAN_ANOMALY>289.9258</MEAN_ANOMALY></meanElements><tleParameters><EPHEMERIS_TYPE>0</EPHEMERIS_TYPE><CLASSIFICATION_TYPE>U</CLASSIFICATION_TYPE><NORAD_CAT_ID>65152</NORAD_CAT_ID><ELEMENT_SET_NO>999</ELEMENT_SET_NO><REV_AT_EPOCH>464</REV_AT_EPOCH><BSTAR>-.3731949E-1</BSTAR><MEAN_MOTION_DOT>-.549765E-2</MEAN_MOTION_DOT><MEAN_MOTION_DDOT>0</MEAN_MOTION_DDOT></tleParameters></data></segment></body></omm>
<omm id="CCSDS_OMM_VERS" version="2.0">
<header><CREATION_DATE/><ORIGINATOR/></header><body><segment><metadata><OBJECT_NAME>KUIPER-00116</OBJECT_NAME><OBJECT_ID>2025-171X</OBJECT_ID><CENTER_NAME>EARTH</CENTER_NAME><REF_FRAME>TEME</REF_FRAME><TIME_SYSTEM>UTC</TIME_SYSTEM><MEAN_ELEMENT_THEORY>SGP4</MEAN_ELEMENT_THEORY></metadata><data><meanElements><EPOCH>2025-10-20T06:00:04.000320</EPOCH><MEAN_MOTION>14.90899597</MEAN_MOTION><ECCENTRICITY>.00088632</ECCENTRICITY><INCLINATION>51.8969</INCLINATION><RA_OF_ASC_NODE>74.5537</RA_OF_ASC_NODE><ARG_OF_PERICENTER>347.9553</ARG_OF_PERICENTER><MEAN_ANOMALY>286.1117</MEAN_ANOMALY></meanElements><tleParameters><EPHEMERIS_TYPE>0</EPHEMERIS_TYPE><CLASSIFICATION_TYPE>U</CLASSIFICATION_TYPE><NORAD_CAT_ID>65153</NORAD_CAT_ID><ELEMENT_SET_NO>999</ELEMENT_SET_NO><REV_AT_EPOCH>470</REV_AT_EPOCH><BSTAR>-.97575103E-1</BSTAR><MEAN_MOTION_DOT>-.909474E-2</MEAN_MOTION_DOT><MEAN_MOTION_DDOT>0</MEAN_MOTION_DDOT></tleParameters></data></segment></body></omm>
<omm id="CCSDS_OMM_VERS" version="2.0">
<header><CREATION_DATE/><ORIGINATOR/></header><body><segment><metadata><OBJECT_NAME>KUIPER-00118</OBJECT_NAME><OBJECT_ID>2025-171Y</OBJECT_ID><CENTER_NAME>EARTH</CENTER_NAME><REF_FRAME>TEME</REF_FRAME><TIME_SYSTEM>UTC</TIME_SYSTEM><MEAN_ELEMENT_THEORY>SGP4</MEAN_ELEMENT_THEORY></metadata><data><meanElements><EPOCH>2025-10-20T06:00:04.000320</EPOCH><MEAN_MOTION>14.83153571</MEAN_MOTION><ECCENTRICITY>.00016133</ECCENTRICITY><INCLINATION>51.9076</INCLINATION><RA_OF_ASC_NODE>76.6293</RA_OF_ASC_NODE><ARG_OF_PERICENTER>63.7499</ARG_OF_PERICENTER><MEAN_ANOMALY>28.0862</MEAN_ANOMALY></meanElements><tleParameters><EPHEMERIS_TYPE>0</EPHEMERIS_TYPE><CLASSIFICATION_TYPE>U</CLASSIFICATION_TYPE><NORAD_CAT_ID>65154</NORAD_CAT_ID><ELEMENT_SET_NO>999</ELEMENT_SET_NO><REV_AT_EPOCH>395</REV_AT_EPOCH><BSTAR>-.13166653E+0</BSTAR><MEAN_MOTION_DOT>-.1004555E-1</MEAN_MOTION_DOT><MEAN_MOTION_DDOT>0</MEAN_MOTION_DDOT></tleParameters></data></segment></body></omm>
<omm id="CCSDS_OMM_VERS" version="2.0">
<header><CREATION_DATE/><ORIGINATOR/></header><body><segment><metadata><OBJECT_NAME>KUIPER-00119</OBJECT_NAME><OBJECT_ID>2025-171Z</OBJECT_ID><CENTER_NAME>EARTH</CENTER_NAME><REF_FRAME>TEME</REF_FRAME><TIME_SYSTEM>UTC</TIME_SYSTEM><MEAN_ELEMENT_THEORY>SGP4</MEAN_ELEMENT_THEORY></metadata><data><meanElements><EPOCH>2025-10-20T06:00:04.000320</EPOCH><MEAN_MOTION>15.19336265</MEAN_MOTION><ECCENTRICITY>.0007588</ECCENTRICITY><INCLINATION>51.8842</INCLINATION><RA_OF_ASC_NODE>69.1889</RA_OF_ASC_NODE><ARG_OF_PERICENTER>347.2869</ARG_OF_PERICENTER><MEAN_ANOMALY>120.0111</MEAN_ANOMALY></meanElements><tleParameters><EPHEMERIS_TYPE>0</EPHEMERIS_TYPE><CLASSIFICATION_TYPE>U</CLASSIFICATION_TYPE><NORAD_CAT_ID>65155</NORAD_CAT_ID><ELEMENT_SET_NO>999</ELEMENT_SET_NO><REV_AT_EPOCH>534</REV_AT_EPOCH><BSTAR>-.36041488E-1</BSTAR><MEAN_MOTION_DOT>-.720343E-2</MEAN_MOTION_DOT><MEAN_MOTION_DDOT>0</MEAN_MOTION_DDOT></tleParameters></data></segment></body></omm>
<omm id="CCSDS_OMM_VERS" version="2.0">
<header><CREATION_DATE/><ORIGINATOR/></header><body><segment><metadata><OBJECT_NAME>KUIPER-00120</OBJECT_NAME><OBJECT_ID>2025-217A</OBJECT_ID><CENTER_NAME>EARTH</CENTER_NAME><REF_FRAME>TEME</REF_FRAME><TIME_SYSTEM>UTC</TIME_SYSTEM><MEAN_ELEMENT_THEORY>SGP4</MEAN_ELEMENT_THEORY></metadata><data><meanElements><EPOCH>2025-10-20T06:00:04.000320</EPOCH><MEAN_MOTION>15.32365184</MEAN_MOTION><ECCENTRICITY>.00094723</ECCENTRICITY><INCLINATION>51.8642</INCLINATION><RA_OF_ASC_NODE>323.3259</RA_OF_ASC_NODE><ARG_OF_PERICENTER>198.0095</ARG_OF_PERICENTER><MEAN_ANOMALY>115.7738</MEAN_ANOMALY></meanElements><tleParameters><EPHEMERIS_TYPE>0</EPHEMERIS_TYPE><CLASSIFICATION_TYPE>U</CLASSIFICATION_TYPE><NORAD_CAT_ID>65762</NORAD_CAT_ID><ELEMENT_SET_NO>999</ELEMENT_SET_NO><REV_AT_EPOCH>479</REV_AT_EPOCH><BSTAR>-.38762025E-1</BSTAR><MEAN_MOTION_DOT>-.1125544E-1</MEAN_MOTION_DOT><MEAN_MOTION_DDOT>0</MEAN_MOTION_DDOT></tleParameters></data></segment></body></omm>
<omm id="CCSDS_OMM_VERS" version="2.0">
<header><CREATION_DATE/><ORIGINATOR/></header><body><segment><metadata><OBJECT_NAME>KUIPER-00132</OBJECT_NAME><OBJECT_ID>2025-217B</OBJECT_ID><CENTER_NAME>EARTH</CENTER_NAME><REF_FRAME>TEME</REF_FRAME><TIME_SYSTEM>UTC</TIME_SYSTEM><MEAN_ELEMENT_THEORY>SGP4</MEAN_ELEMENT_THEORY></metadata><data><meanElements><EPOCH>2025-10-20T07:21:55.111104</EPOCH><MEAN_MOTION>15.35643430</MEAN_MOTION><ECCENTRICITY>.000606</ECCENTRICITY><INCLINATION>51.8644</INCLINATION><RA_OF_ASC_NODE>322.8737</RA_OF_ASC_NODE><ARG_OF_PERICENTER>185.8242</ARG_OF_PERICENTER><MEAN_ANOMALY>174.2675</MEAN_ANOMALY></meanElements><tleParameters><EPHEMERIS_TYPE>0</EPHEMERIS_TYPE><CLASSIFICATION_TYPE>U</CLASSIFICATION_TYPE><NORAD_CAT_ID>65763</NORAD_CAT_ID><ELEMENT_SET_NO>999</ELEMENT_SET_NO><REV_AT_EPOCH>382</REV_AT_EPOCH><BSTAR>.92114655E-3</BSTAR><MEAN_MOTION_DOT>.32184E-3</MEAN_MOTION_DOT><MEAN_MOTION_DDOT>0</MEAN_MOTION_DDOT></tleParameters></data></segment></body></omm>

</ndm>
