KUIPER-00112            
1 65150U 25171U   25293.07636839  .00072849  00000+0  19397-2 0  9996
2 65150  51.8751  69.1152 0006109  36.9532 323.1875 15.37516597 11936
KUIPER-00114            
1 65151U 25171V   25293.25004630  .00034466  00000+0  42171-2 0  9994
2 65151  51.9003  76.6823 0005172  18.5258 247.6769 14.82892266  5390
KUIPER-00115            
1 65152U 25171W   25293.25004630 -.00549765  00000+0 -37319-1 0  9997
2 65152  51.8902  71.0663 0009115  24.6888 289.9258 15.08279263  4641
KUIPER-00116            
1 65153U 25171X   25293.25004630 -.00909474  00000+0 -97575-1 0  9995
2 65153  51.8969  74.5537 0008863 347.9553 286.1117 14.90899597  4700
KUIPER-00118            
1 65154U 25171Y   25293.25004630 -.01004555  00000+0 -13167+0 0  9996
2 65154  51.9076  76.6293 0001613  63.7499  28.0862 14.83153571  3954
KUIPER-00119            
1 65155U 25171Z   25293.25004630 -.00720343  00000+0 -36041-1 0  9994
2 65155  51.8842  69.1889 0007588 347.2869 120.0111 15.19336265  5349
KUIPER-00120            
1 65762U 25217A   25293.25004630 -.01125544  00000+0 -38762-1 0  9994
2 65762  51.8642 323.3259 0009472 198.0095 115.7738 15.32365184  4795
KUIPER-00132            
1 65763U 25217B   25293.30688786  .00032184  00000+0  92115-3 0  9999
2 65763  51.8644 322.8737 0006060 185.8242 174.2675 15.35643430  3820
